{"type": "FeatureCollection", "features": [ {"type": "Feature", "properties": {"norad_id": 32363, "name": "FENGYUN 1C DEB", "group": "fengyun-1c-debris", "lat": 50.819857866429395, "lon": -63.38663777402556, "alt_km": 411.6535903851227, "timestamp": "2025-12-14T16:47:40.969919+00:00", "meta": {"OBJECT_NAME": "FENGYUN 1C DEB", "OBJECT_ID": "1999-025CZG", "EPOCH": "2025-12-13T20:24:15.518304", "MEAN_MOTION": 15.47957967, "ECCENTRICITY": 0.00639514, "INCLINATION": 98.331, "RA_OF_ASC_NODE": 305.9934, "ARG_OF_PERICENTER": 137.1603, "MEAN_ANOMALY": 223.4653, "EPHEMERIS_TYPE": 0, "CLASSIFICATION_TYPE": "U", "NORAD_CAT_ID": 32363, "ELEMENT_SET_NO": 999, "REV_AT_EPOCH": 96825, "BSTAR": 0.0016937554, "MEAN_MOTION_DOT": 0.00096741, "MEAN_MOTION_DDOT": 0}, "tle": {"line1": "1 32363U 99025CZG 25347.85017961  .00096741  00000+0  16938-2 0  9995", "line2": "2 32363  98.3310 305.9934 0063951 137.1603 223.4653 15.47957967968256"}}, "geometry": {"type": "Point", "coordinates": [-63.38663777402556, 50.819857866429395]}}, {"type": "Feature", "properties": {"norad_id": 32364, "name": "FENGYUN 1C DEB", "group": "fengyun-1c-debris", "lat": 55.48938998785324, "lon": 175.2613359643645, "alt_km": 889.5203794023591, "timestamp": "2025-12-14T16:47:40.969929+00:00", "meta": {"OBJECT_NAME": "FENGYUN 1C DEB", "OBJECT_ID": "1999-025CZH", "EPOCH": "2025-11-29T08:05:37.624992", "MEAN_MOTION": 14.14317962, "ECCENTRICITY": 0.01349396, "INCLINATION": 98.2918, "RA_OF_ASC_NODE": 173.2369, "ARG_OF_PERICENTER": 222.8285, "MEAN_ANOMALY": 136.2316, "EPHEMERIS_TYPE": 0, "CLASSIFICATION_TYPE": "U", "NORAD_CAT_ID": 32364, "ELEMENT_SET_NO": 999, "REV_AT_EPOCH": 63519, "BSTAR": 0.0022712328, "MEAN_MOTION_DOT": 4.699e-05, "MEAN_MOTION_DDOT": 0}, "tle": {"line1": "1 32364U 99025CZH 25333.33724103  .00004699  00000+0  22712-2 0  9995", "line2": "2 32364  98.2918 173.2369 0134939 222.8285 136.2316 14.14317962635190"}}, "geometry": {"type": "Point", "coordinates": [175.2613359643645, 55.48938998785324]}}, {"type": "Feature", "properties": {"norad_id": 32366, "name": "FENGYUN 1C DEB", "group": "fengyun-1c-debris", "lat": 70.42470780022624, "lon": -49.87156958389011, "alt_km": 926.3799021307386, "timestamp": "2025-12-14T16:47:40.969939+00:00", "meta": {"OBJECT_NAME": "FENGYUN 1C DEB", "OBJECT_ID": "1999-025CZK", "EPOCH": "2025-12-12T15:01:00.327936", "MEAN_MOTION": 14.13833513, "ECCENTRICITY": 0.01358425, "INCLINATION": 96.775, "RA_OF_ASC_NODE": 109.0241, "ARG_OF_PERICENTER": 267.3383, "MEAN_ANOMALY": 91.224, "EPHEMERIS_TYPE": 0, "CLASSIFICATION_TYPE": "U", "NORAD_CAT_ID": 32366, "ELEMENT_SET_NO": 999, "REV_AT_EPOCH": 93202, "BSTAR": 0.002672075, "MEAN_MOTION_DOT": 5.501e-05, "MEAN_MOTION_DDOT": 0}, "tle": {"line1": "1 32366U 99025CZK 25346.62569824  .00005501  00000+0  26721-2 0  9997", "line2": "2 32366  96.7750 109.0241 0135842 267.3383  91.2240 14.13833513932024"}}, "geometry": {"type": "Point", "coordinates": [-49.87156958389011, 70.42470780022624]}}, {"type": "Feature", "properties": {"norad_id": 32372, "name": "FENGYUN 1C DEB", "group": "fengyun-1c-debris", "lat": 24.245138524751624, "lon": -134.0597401799673, "alt_km": 786.8210857138511, "timestamp": "2025-12-14T16:47:40.969949+00:00", "meta": {"OBJECT_NAME": "FENGYUN 1C DEB", "OBJECT_ID": "1999-025CZR", "EPOCH": "2025-12-11T11:21:44.110080", "MEAN_MOTION": 13.35367723, "ECCENTRICITY": 0.04586798, "INCLINATION": 97.3163, "RA_OF_ASC_NODE": 226.9338, "ARG_OF_PERICENTER": 43.4714, "MEAN_ANOMALY": 320.164, "EPHEMERIS_TYPE": 0, "CLASSIFICATION_TYPE": "U", "NORAD_CAT_ID": 32372, "ELEMENT_SET_NO": 999, "REV_AT_EPOCH": 60123, "BSTAR": 0.003543376, "MEAN_MOTION_DOT": 3.249e-05, "MEAN_MOTION_DDOT": 0}, "tle": {"line1": "1 32372U 99025CZR 25345.47342720  .00003249  00000+0  35434-2 0  9998", "line2": "2 32372  97.3163 226.9338 0458679  43.4714 320.1640 13.35367723601231"}}, "geometry": {"type": "Point", "coordinates": [-134.0597401799673, 24.245138524751624]}}, {"type": "Feature", "properties": {"norad_id": 32409, "name": "FENGYUN 1C DEB", "group": "fengyun-1c-debris", "lat": -23.624371430996035, "lon": 157.13563663179218, "alt_km": 673.4622064933137, "timestamp": "2025-12-14T16:47:40.969959+00:00", "meta": {"OBJECT_NAME": "FENGYUN 1C DEB", "OBJECT_ID": "1999-025CZV", "EPOCH": "2025-12-07T05:07:54.004800", "MEAN_MOTION": 14.7602828, "ECCENTRICITY": 0.00392582, "INCLINATION": 99.5677, "RA_OF_ASC_NODE": 144.053, "ARG_OF_PERICENTER": 169.8692, "MEAN_ANOMALY": 6.8268, "EPHEMERIS_TYPE": 0, "CLASSIFICATION_TYPE": "U", "NORAD_CAT_ID": 32409, "ELEMENT_SET_NO": 999, "REV_AT_EPOCH": 58757, "BSTAR": 0.00306852, "MEAN_MOTION_DOT": 0.00021404, "MEAN_MOTION_DDOT": 0}, "tle": {"line1": "1 32409U 99025CZV 25341.21381950  .00021404  00000+0  30685-2 0  9991", "line2": "2 32409  99.5677 144.0530 0039258 169.8692   6.8268 14.76028280587578"}}, "geometry": {"type": "Point", "coordinates": [157.13563663179218, -23.624371430996035]}}, {"type": "Feature", "properties": {"norad_id": 32411, "name": "FENGYUN 1C DEB", "group": "fengyun-1c-debris", "lat": -6.748081904823081, "lon": 85.53064346060657, "alt_km": 953.4495415010078, "timestamp": "2025-12-14T16:47:40.969969+00:00", "meta": {"OBJECT_NAME": "FENGYUN 1C DEB", "OBJECT_ID": "1999-025CZX", "EPOCH": "2025-12-13T00:44:16.660896", "MEAN_MOTION": 14.0980985, "ECCENTRICITY": 0.01242326, "INCLINATION": 98.4289, "RA_OF_ASC_NODE": 264.9721, "ARG_OF_PERICENTER": 15.6088, "MEAN_ANOMALY": 344.8861, "EPHEMERIS_TYPE": 0, "CLASSIFICATION_TYPE": "U", "NORAD_CAT_ID": 32411, "ELEMENT_SET_NO": 999, "REV_AT_EPOCH": 65818, "BSTAR": 0.00070866211, "MEAN_MOTION_DOT": 1.298e-05, "MEAN_MOTION_DDOT": 0}, "tle": {"line1": "1 32411U 99025CZX 25347.03074839  .00001298  00000+0  70866-3 0  9990", "line2": "2 32411  98.4289 264.9721 0124232  15.6088 344.8861 14.09809850658182"}}, "geometry": {"type": "Point", "coordinates": [85.53064346060657, -6.748081904823081]}}, {"type": "Feature", "properties": {"norad_id": 32414, "name": "FENGYUN 1C DEB", "group": "fengyun-1c-debris", "lat": -13.459845694232916, "lon": 61.492914863101106, "alt_km": 802.921361842642, "timestamp": "2025-12-14T16:47:40.969979+00:00", "meta": {"OBJECT_NAME": "FENGYUN 1C DEB", "OBJECT_ID": "1999-025DAA", "EPOCH": "2025-12-08T10:10:57.710784", "MEAN_MOTION": 14.18376108, "ECCENTRICITY": 0.00450145, "INCLINATION": 98.8578, "RA_OF_ASC_NODE": 53.0907, "ARG_OF_PERICENTER": 11.0611, "MEAN_ANOMALY": 349.1543, "EPHEMERIS_TYPE": 0, "CLASSIFICATION_TYPE": "U", "NORAD_CAT_ID": 32414, "ELEMENT_SET_NO": 999, "REV_AT_EPOCH": 93671, "BSTAR": 0.0020734301, "MEAN_MOTION_DOT": 4.277e-05, "MEAN_MOTION_DDOT": 0}, "tle": {"line1": "1 32414U 99025DAA 25342.42427906  .00004277  00000+0  20734-2 0  9996", "line2": "2 32414  98.8578  53.0907 0045014  11.0611 349.1543 14.18376108936713"}}, "geometry": {"type": "Point", "coordinates": [61.492914863101106, -13.459845694232916]}}, {"type": "Feature", "properties": {"norad_id": 32419, "name": "FENGYUN 1C DEB", "group": "fengyun-1c-debris", "lat": 81.66579639908063, "lon": -148.69014126868146, "alt_km": 758.0558796554114, "timestamp": "2025-12-14T16:47:40.969991+00:00", "meta": {"OBJECT_NAME": "FENGYUN 1C DEB", "OBJECT_ID": "1999-025DAF", "EPOCH": "2025-12-11T15:09:56.013984", "MEAN_MOTION": 14.09908253, "ECCENTRICITY": 0.02839501, "INCLINATION": 97.9459, "RA_OF_ASC_NODE": 281.0334, "ARG_OF_PERICENTER": 32.1797, "MEAN_ANOMALY": 329.6358, "EPHEMERIS_TYPE": 0, "CLASSIFICATION_TYPE": "U", "NORAD_CAT_ID": 32419, "ELEMENT_SET_NO": 999, "REV_AT_EPOCH": 63555, "BSTAR": 0.0013854285, "MEAN_MOTION_DOT": 3.513e-05, "MEAN_MOTION_DDOT": 0}, "tle": {"line1": "1 32419U 99025DAF 25345.63189831  .00003513  00000+0  13854-2 0  9996", "line2": "2 32419  97.9459 281.0334 0283950  32.1797 329.6358 14.09908253635552"}}, "geometry": {"type": "Point", "coordinates": [-148.69014126868146, 81.66579639908063]}}, {"type": "Feature", "properties": {"norad_id": 32422, "name": "FENGYUN 1C DEB", "group": "fengyun-1c-debris", "lat": 20.094241513611077, "lon": -57.189883515418536, "alt_km": 1028.851669148542, "timestamp": "2025-12-14T16:47:40.970001+00:00", "meta": {"OBJECT_NAME": "FENGYUN 1C DEB", "OBJECT_ID": "1999-025DAJ", "EPOCH": "2025-12-10T15:48:54.548352", "MEAN_MOTION": 13.98002768, "ECCENTRICITY": 0.0298224, "INCLINATION": 97.8401, "RA_OF_ASC_NODE": 116.4609, "ARG_OF_PERICENTER": 298.6669, "MEAN_ANOMALY": 58.4812, "EPHEMERIS_TYPE": 0, "CLASSIFICATION_TYPE": "U", "NORAD_CAT_ID": 32422, "ELEMENT_SET_NO": 999, "REV_AT_EPOCH": 63104, "BSTAR": 0.00051946, "MEAN_MOTION_DOT": 1.039e-05, "MEAN_MOTION_DDOT": 0}, "tle": {"line1": "1 32422U 99025DAJ 25344.65896468  .00001039  00000+0  51946-3 0  9998", "line2": "2 32422  97.8401 116.4609 0298224 298.6669  58.4812 13.98002768631040"}}, "geometry": {"type": "Point", "coordinates": [-57.189883515418536, 20.094241513611077]}}, {"type": "Feature", "properties": {"norad_id": 32425, "name": "FENGYUN 1C DEB", "group": "fengyun-1c-debris", "lat": -51.67947376658365, "lon": -51.99504443042962, "alt_km": 760.4842654087406, "timestamp": "2025-12-14T16:47:40.970011+00:00", "meta": {"OBJECT_NAME": "FENGYUN 1C DEB", "OBJECT_ID": "1999-025DAM", "EPOCH": "2025-12-12T16:13:12.115488", "MEAN_MOTION": 14.16741504, "ECCENTRICITY": 0.02316015, "INCLINATION": 96.7012, "RA_OF_ASC_NODE": 135.0318, "ARG_OF_PERICENTER": 299.6477, "MEAN_ANOMALY": 58.1818, "EPHEMERIS_TYPE": 0, "CLASSIFICATION_TYPE": "U", "NORAD_CAT_ID": 32425, "ELEMENT_SET_NO": 999, "REV_AT_EPOCH": 69534, "BSTAR": 0.00075748036, "MEAN_MOTION_DOT": 1.938e-05, "MEAN_MOTION_DDOT": 0}, "tle": {"line1": "1 32425U 99025DAM 25346.67583467  .00001938  00000+0  75748-3 0  9991", "line2": "2 32425  96.7012 135.0318 0231601 299.6477  58.1818 14.16741504695342"}}, "geometry": {"type": "Point", "coordinates": [-51.99504443042962, -51.67947376658365]}}]}